GSAT0223 (GALILEO 27)   
1 49809U 21116A   25067.39466414 -.00000111  00000+0  00000+0 0  9990
2 49809  57.2776 354.2471 0002103 279.8168 172.9328  1.70475345 20245
GSAT0224 (GALILEO 28)   
1 49810U 21116B   25065.47774226 -.00000104  00000+0  00000+0 0  9994
2 49810  57.2788 354.2974 0001886 295.2065 173.6316  1.70475249 20230
GSAT0225 (GALILEO 29)   
1 59598U 24079A   25062.96482492  .00000011  00000+0  00000+0 0  9997
2 59598  54.8337 114.2343 0003099 245.2285 113.0483  1.70474840  5296
GSAT0227 (GALILEO 30)   
1 59600U 24079C   25069.01687771  .00000008  00000+0  00000+0 0  9997
2 59600  54.8325 114.0647 0000463 178.4710 181.6057  1.70474946  5457
GSAT0232 (GALILEO 32)   
1 61182U 24167A   25069.28586469  .00000015  00000+0  00000+0 0  9992
2 61182  55.3422 234.0384 0002441 181.9760 178.3804  1.70473991  2978
GSAT0226 (GALILEO 31)   
1 61183U 24167B   25068.51957516  .00000022  00000+0  00000+0 0  9991
2 61183  55.3414 234.0651 0002028 122.8730 239.7468  1.70474025  2932
