[
    {
        "OBJECT_NAME": "GSAT0223 (GALILEO 27)",
        "OBJECT_ID": "2021-116A",
        "EPOCH": "2025-03-08T09:28:18.981696",
        "MEAN_MOTION": 1.70475345,
        "ECCENTRICITY": 0.0002103,
        "INCLINATION": 57.2776,
        "RA_OF_ASC_NODE": 354.2471,
        "ARG_OF_PERICENTER": 279.8168,
        "MEAN_ANOMALY": 172.9328,
        "EPHEMERIS_TYPE": 0,
        "CLASSIFICATION_TYPE": "U",
        "NORAD_CAT_ID": 49809,
        "ELEMENT_SET_NO": 999,
        "REV_AT_EPOCH": 2024,
        "BSTAR": 0,
        "MEAN_MOTION_DOT": -1.11e-06,
        "MEAN_MOTION_DDOT": 0
    },
    {
        "OBJECT_NAME": "GSAT0224 (GALILEO 28)",
        "OBJECT_ID": "2021-116B",
        "EPOCH": "2025-03-06T11:27:56.931264",
        "MEAN_MOTION": 1.70475249,
        "ECCENTRICITY": 0.0001886,
        "INCLINATION": 57.2788,
        "RA_OF_ASC_NODE": 354.2974,
        "ARG_OF_PERICENTER": 295.2065,
        "MEAN_ANOMALY": 173.6316,
        "EPHEMERIS_TYPE": 0,
        "CLASSIFICATION_TYPE": "U",
        "NORAD_CAT_ID": 49810,
        "ELEMENT_SET_NO": 999,
        "REV_AT_EPOCH": 2023,
        "BSTAR": 0,
        "MEAN_MOTION_DOT": -1.04e-06,
        "MEAN_MOTION_DDOT": 0
    },
    {
        "OBJECT_NAME": "GSAT0225 (GALILEO 29)",
        "OBJECT_ID": "2024-079A",
        "EPOCH": "2025-03-03T23:09:20.873088",
        "MEAN_MOTION": 1.7047484,
        "ECCENTRICITY": 0.0003099,
        "INCLINATION": 54.8337,
        "RA_OF_ASC_NODE": 114.2343,
        "ARG_OF_PERICENTER": 245.2285,
        "MEAN_ANOMALY": 113.0483,
        "EPHEMERIS_TYPE": 0,
        "CLASSIFICATION_TYPE": "U",
        "NORAD_CAT_ID": 59598,
        "ELEMENT_SET_NO": 999,
        "REV_AT_EPOCH": 529,
        "BSTAR": 0,
        "MEAN_MOTION_DOT": 1.1e-07,
        "MEAN_MOTION_DDOT": 0
    },
    {
        "OBJECT_NAME": "GSAT0227 (GALILEO 30)",
        "OBJECT_ID": "2024-079C",
        "EPOCH": "2025-03-10T00:24:18.234144",
        "MEAN_MOTION": 1.70474946,
        "ECCENTRICITY": 4.63e-05,
        "INCLINATION": 54.8325,
        "RA_OF_ASC_NODE": 114.0647,
        "ARG_OF_PERICENTER": 178.471,
        "MEAN_ANOMALY": 181.6057,
        "EPHEMERIS_TYPE": 0,
        "CLASSIFICATION_TYPE": "U",
        "NORAD_CAT_ID": 59600,
        "ELEMENT_SET_NO": 999,
        "REV_AT_EPOCH": 545,
        "BSTAR": 0,
        "MEAN_MOTION_DOT": 8e-08,
        "MEAN_MOTION_DDOT": 0
    },
    {
        "OBJECT_NAME": "GSAT0232 (GALILEO 32)",
        "OBJECT_ID": "2024-167A",
        "EPOCH": "2025-03-10T06:51:38.709216",
        "MEAN_MOTION": 1.70473991,
        "ECCENTRICITY": 0.0002441,
        "INCLINATION": 55.3422,
        "RA_OF_ASC_NODE": 234.0384,
        "ARG_OF_PERICENTER": 181.976,
        "MEAN_ANOMALY": 178.3804,
        "EPHEMERIS_TYPE": 0,
        "CLASSIFICATION_TYPE": "U",
        "NORAD_CAT_ID": 61182,
        "ELEMENT_SET_NO": 999,
        "REV_AT_EPOCH": 297,
        "BSTAR": 0,
        "MEAN_MOTION_DOT": 1.5e-07,
        "MEAN_MOTION_DDOT": 0
    },
    {
        "OBJECT_NAME": "GSAT0226 (GALILEO 31)",
        "OBJECT_ID": "2024-167B",
        "EPOCH": "2025-03-09T12:28:11.293824",
        "MEAN_MOTION": 1.70474025,
        "ECCENTRICITY": 0.0002028,
        "INCLINATION": 55.3414,
        "RA_OF_ASC_NODE": 234.0651,
        "ARG_OF_PERICENTER": 122.873,
        "MEAN_ANOMALY": 239.7468,
        "EPHEMERIS_TYPE": 0,
        "CLASSIFICATION_TYPE": "U",
        "NORAD_CAT_ID": 61183,
        "ELEMENT_SET_NO": 999,
        "REV_AT_EPOCH": 293,
        "BSTAR": 0,
        "MEAN_MOTION_DOT": 2.2e-07,
        "MEAN_MOTION_DDOT": 0
    }
]